<?xml version="1.0" encoding="UTF-8"?><kml xmlns="http://www.opengis.net/kml/2.2"><Document><name>Core CMCI - Consultation Room Stores</name><Style id="DFW3"><IconStyle><color>ffb4771f</color><scale>1.1</scale><Icon><href>http://maps.google.com/mapfiles/kml/paddle/wht-blank.png</href></Icon></IconStyle></Style><Style id="Hou7"><IconStyle><color>ff2827d6</color><scale>1.1</scale><Icon><href>http://maps.google.com/mapfiles/kml/paddle/wht-blank.png</href></Icon></IconStyle></Style><Style id="Aus16"><IconStyle><color>ff2ca02c</color><scale>1.1</scale><Icon><href>http://maps.google.com/mapfiles/kml/paddle/wht-blank.png</href></Icon></IconStyle></Style><Style id="San11"><IconStyle><color>ff0e7fff</color><scale>1.1</scale><Icon><href>http://maps.google.com/mapfiles/kml/paddle/wht-blank.png</href></Icon></IconStyle></Style><Style id="Sou8"><IconStyle><color>ffbd6794</color><scale>1.1</scale><Icon><href>http://maps.google.com/mapfiles/kml/paddle/wht-blank.png</href></Icon></IconStyle></Style><Style id="Out7"><IconStyle><color>ff333333</color><scale>1.1</scale><Icon><href>http://maps.google.com/mapfiles/kml/paddle/wht-blank.png</href></Icon></IconStyle></Style><Folder><name>DFW</name><Placemark><name>Store 10880 - Irving (MSD 10/05)</name><description><![CDATA[8580 N. Macarthur Blvd, Irving, TX 75063<br/>CS# 190032<br/>MSD: Mon 10/05/26<br/>Deliver-by: Wed 09/30/26<br/>Ship-by: Mon 09/28/26<br/>Units: 3 (config 3)<br/>Labor: MV<br/>Layout: Approved<br/>Pin: Census address match]]></description><styleUrl>#DFW3</styleUrl><Point><coordinates>-96.95528,32.92358,0</coordinates></Point></Placemark><Placemark><name>Store 10642 - Corinth (MSD 10/12)</name><description><![CDATA[1101 Fm 2181, Corinth, TX 76210<br/>CS# 190033<br/>MSD: Mon 10/12/26<br/>Deliver-by: Wed 10/07/26<br/>Ship-by: Mon 10/05/26<br/>Units: 3 (config 3)<br/>Labor: MV<br/>Layout: Approved<br/>Pin: OSM CVS store match (FM 2181 = Teasley Ln)]]></description><styleUrl>#DFW3</styleUrl><Point><coordinates>-97.09509,33.13282,0</coordinates></Point></Placemark><Placemark><name>Store 10324 - Dallas (MSD 10/12)</name><description><![CDATA[6420 Gaston Ave., Dallas, TX 75214<br/>CS# 189985<br/>MSD: Mon 10/12/26<br/>Deliver-by: Wed 10/07/26<br/>Ship-by: Mon 10/05/26<br/>Units: 4 (config 4)<br/>Labor: Store Labor<br/>Layout: Approved<br/>Pin: Census address match]]></description><styleUrl>#DFW3</styleUrl><Point><coordinates>-96.75177,32.8148,0</coordinates></Point></Placemark><Placemark><name>Store 8345 - Grand Prairie (MSD 10/19)</name><description><![CDATA[5195 Lake Ridge Pkwy., Grand Prairie, TX 75052<br/>CS# 189620<br/>MSD: Mon 10/19/26<br/>Deliver-by: Wed 10/14/26<br/>Ship-by: Mon 10/12/26<br/>Units: 2 (config 2 - Right Hinge)<br/>Labor: TBD<br/>Layout: Approved<br/>Pin: Census address match]]></description><styleUrl>#DFW3</styleUrl><Point><coordinates>-97.04393,32.64808,0</coordinates></Point></Placemark><Placemark><name>Store 6865 - Lewisville (MSD 10/19)</name><description><![CDATA[1099 W. Main St, Lewisville, TX 75067<br/>CS# 189473<br/>MSD: Mon 10/19/26<br/>Deliver-by: Wed 10/14/26<br/>Ship-by: Mon 10/12/26<br/>Units: 4 (config 4)<br/>Labor: MV<br/>Layout: Approved<br/>Pin: Census address match]]></description><styleUrl>#DFW3</styleUrl><Point><coordinates>-97.02046,33.04221,0</coordinates></Point></Placemark><Placemark><name>Store 3187 - Coppell (MSD 10/26)</name><description><![CDATA[1000 E. Sandy Lake Rd., Coppell, TX 75019<br/>CS# 189281<br/>MSD: Mon 10/26/26<br/>Deliver-by: Wed 10/21/26<br/>Ship-by: Mon 10/19/26<br/>Units: 3 (config 3)<br/>Labor: MV<br/>Layout: Approved<br/>Pin: Census address match]]></description><styleUrl>#DFW3</styleUrl><Point><coordinates>-96.95857,32.96947,0</coordinates></Point></Placemark><Placemark><name>Store 7787 - Flower Mound (MSD 10/26)</name><description><![CDATA[2220 Cross Timbers Rd, Flower Mound, TX 75028<br/>CS# 189528<br/>MSD: Mon 10/26/26<br/>Deliver-by: Wed 10/21/26<br/>Ship-by: Mon 10/19/26<br/>Units: 3 (config 3)<br/>Labor: TBD<br/>Layout: Approved<br/>Pin: Census address match]]></description><styleUrl>#DFW3</styleUrl><Point><coordinates>-97.06252,33.03457,0</coordinates></Point></Placemark><Placemark><name>Store 6960 - Carrollton (MSD 11/02)</name><description><![CDATA[2142 N Josey Ln, Carrollton, TX 75006<br/>CS# 189474<br/>MSD: Mon 11/02/26<br/>Deliver-by: Wed 10/28/26<br/>Ship-by: Mon 10/26/26<br/>Units: 3 (config 3)<br/>Labor: TBD<br/>Layout: Approved<br/>Pin: Census address match]]></description><styleUrl>#DFW3</styleUrl><Point><coordinates>-96.8898,32.97154,0</coordinates></Point></Placemark><Placemark><name>Store 7804 - Plano (MSD 11/02)</name><description><![CDATA[6401 W Parker Rd, Plano, TX 75093<br/>CS# 189529<br/>MSD: Mon 11/02/26<br/>Deliver-by: Wed 10/28/26<br/>Ship-by: Mon 10/26/26<br/>Units: 3 (config 3)<br/>Labor: TBD<br/>Layout: Approved<br/>Pin: Census address match]]></description><styleUrl>#DFW3</styleUrl><Point><coordinates>-96.8396,33.04537,0</coordinates></Point></Placemark><Placemark><name>Store 10271 - Denton (MSD 11/09)</name><description><![CDATA[1510 W. Hickory St., Denton, TX 76201<br/>CS# 189986<br/>MSD: Mon 11/09/26<br/>Deliver-by: Wed 11/04/26<br/>Ship-by: Mon 11/02/26<br/>Units: 3 (config TBD)<br/>Labor: TBD<br/>Layout: Not Validated Yet<br/>Pin: Census address match]]></description><styleUrl>#DFW3</styleUrl><Point><coordinates>-97.14858,33.21472,0</coordinates></Point></Placemark><Placemark><name>Store 5799 - Mckinney (MSD 11/09)</name><description><![CDATA[6301 El Dorado Pkwy., Mckinney, TX 75070<br/>CS# 189426<br/>MSD: Mon 11/09/26<br/>Deliver-by: Wed 11/04/26<br/>Ship-by: Mon 11/02/26<br/>Units: 3 (config TBD)<br/>Labor: TBD<br/>Layout: Not Validated Yet<br/>Pin: Census address match]]></description><styleUrl>#DFW3</styleUrl><Point><coordinates>-96.69909,33.17397,0</coordinates></Point></Placemark><Placemark><name>Store 10635 - Royse City (MSD 11/09)</name><description><![CDATA[476 W. 1-30, Royse City, TX 75189<br/>CS# 190031<br/>MSD: Mon 11/09/26<br/>Deliver-by: Wed 11/04/26<br/>Ship-by: Mon 11/02/26<br/>Units: 3 (config TBD)<br/>Labor: TBD<br/>Layout: Not Validated Yet<br/>Pin: OSM CVS store match]]></description><styleUrl>#DFW3</styleUrl><Point><coordinates>-96.34001,32.96545,0</coordinates></Point></Placemark><Placemark><name>Store 6965 - Dallas (MSD 11/16)</name><description><![CDATA[7203 Skillman St., Dallas, TX 75231<br/>CS# 189472<br/>MSD: Mon 11/16/26<br/>Deliver-by: Wed 11/11/26<br/>Ship-by: Mon 11/09/26<br/>Units: 3 (config TBD)<br/>Labor: MV<br/>Layout: Not Validated Yet<br/>Pin: Census address match]]></description><styleUrl>#DFW3</styleUrl><Point><coordinates>-96.73511,32.87874,0</coordinates></Point></Placemark><Placemark><name>Store 10523 - Frisco (MSD 11/16)</name><description><![CDATA[270 Stonebrook Pkwy., Frisco, TX 75036<br/>CS# 189987<br/>MSD: Mon 11/16/26<br/>Deliver-by: Wed 11/11/26<br/>Ship-by: Mon 11/09/26<br/>Units: 3 (config TBD)<br/>Labor: TBD<br/>Layout: Not Validated Yet<br/>Pin: Census address match]]></description><styleUrl>#DFW3</styleUrl><Point><coordinates>-96.89006,33.14479,0</coordinates></Point></Placemark><Placemark><name>Store 5952 - Mckinney (MSD 11/16)</name><description><![CDATA[2313 W. University Ave., Mckinney, TX 75071<br/>CS# 189427<br/>MSD: Mon 11/16/26<br/>Deliver-by: Wed 11/11/26<br/>Ship-by: Mon 11/09/26<br/>Units: 3 (config TBD)<br/>Labor: TBD<br/>Layout: Not Validated Yet<br/>Pin: Census address match]]></description><styleUrl>#DFW3</styleUrl><Point><coordinates>-96.64451,33.21677,0</coordinates></Point></Placemark><Placemark><name>Store 7562 - Frisco (MSD 11/30)</name><description><![CDATA[9075 Legacy Dr., Frisco, TX 75033<br/>CS# 189530<br/>MSD: Mon 11/30/26<br/>Deliver-by: Wed 11/25/26<br/>Ship-by: Mon 11/23/26<br/>Units: 3 (config TBD)<br/>Labor: TBD<br/>Layout: Not Validated Yet<br/>Pin: Census address match]]></description><styleUrl>#DFW3</styleUrl><Point><coordinates>-96.84808,33.15386,0</coordinates></Point></Placemark></Folder><Folder><name>Houston</name><Placemark><name>Store 10996 - Willis (MSD 10/12)</name><description><![CDATA[9663 W. Fm 1097 Rd., Willis, TX 77318<br/>CS# 190020<br/>MSD: Mon 10/12/26<br/>Deliver-by: Wed 10/07/26<br/>Ship-by: Mon 10/05/26<br/>Units: 3 (config 3)<br/>Labor: MV<br/>Layout: Approved<br/>Pin: Census address match]]></description><styleUrl>#Hou7</styleUrl><Point><coordinates>-95.49815,30.41962,0</coordinates></Point></Placemark><Placemark><name>Store 7092 - Houston (MSD 10/19)</name><description><![CDATA[110 W. 20Th St., Houston, TX 77008<br/>CS# 189518<br/>MSD: Mon 10/19/26<br/>Deliver-by: Wed 10/14/26<br/>Ship-by: Mon 10/12/26<br/>Units: 3 (config 3)<br/>Labor: MV<br/>Layout: Approved<br/>Pin: Census address match]]></description><styleUrl>#Hou7</styleUrl><Point><coordinates>-95.39813,29.80392,0</coordinates></Point></Placemark><Placemark><name>Store 1996 - Katy (MSD 10/19)</name><description><![CDATA[24950 Franz Rd., Katy, TX 77493<br/>CS# 189171<br/>MSD: Mon 10/19/26<br/>Deliver-by: Wed 10/14/26<br/>Ship-by: Mon 10/12/26<br/>Units: 3 (config 3)<br/>Labor: Store Labor<br/>Layout: Approved<br/>Pin: Road only (Franz Rd) - approx.]]></description><styleUrl>#Hou7</styleUrl><Point><coordinates>-95.83299,29.80035,0</coordinates></Point></Placemark><Placemark><name>Store 10671 - Richmond (MSD 10/19)</name><description><![CDATA[10420 Fm 1464, Richmond, TX 77407<br/>CS# 190024<br/>MSD: Mon 10/19/26<br/>Deliver-by: Wed 10/14/26<br/>Ship-by: Mon 10/12/26<br/>Units: 3 (config 3)<br/>Labor: Store Labor<br/>Layout: Approved<br/>Pin: OSM CVS store match]]></description><styleUrl>#Hou7</styleUrl><Point><coordinates>-95.68694,29.66198,0</coordinates></Point></Placemark><Placemark><name>Store 10637 - Rosenberg (MSD 10/19)</name><description><![CDATA[6750 Reading Road, Rosenberg, TX 77471<br/>CS# 190025<br/>MSD: Mon 10/19/26<br/>Deliver-by: Wed 10/14/26<br/>Ship-by: Mon 10/12/26<br/>Units: 3 (config 3)<br/>Labor: Store Labor<br/>Layout: Approved<br/>Pin: Census address match]]></description><styleUrl>#Hou7</styleUrl><Point><coordinates>-95.7519,29.5405,0</coordinates></Point></Placemark><Placemark><name>Store 5839 - Cypress (MSD 10/26)</name><description><![CDATA[8960 Barker Cypress Rd., Cypress, TX 77433<br/>CS# 189419<br/>MSD: Mon 10/26/26<br/>Deliver-by: Wed 10/21/26<br/>Ship-by: Mon 10/19/26<br/>Units: 3 (config 3)<br/>Labor: MV<br/>Layout: Approved<br/>Pin: Census address match]]></description><styleUrl>#Hou7</styleUrl><Point><coordinates>-95.6859,29.90769,0</coordinates></Point></Placemark><Placemark><name>Store 5884 - Houston (MSD 10/26)</name><description><![CDATA[12260 Bellaire Blvd., Houston, TX 77072<br/>CS# 189421<br/>MSD: Mon 10/26/26<br/>Deliver-by: Wed 10/21/26<br/>Ship-by: Mon 10/19/26<br/>Units: 3 (config 3)<br/>Labor: Store Labor<br/>Layout: Approved<br/>Pin: Census address match]]></description><styleUrl>#Hou7</styleUrl><Point><coordinates>-95.59579,29.70368,0</coordinates></Point></Placemark><Placemark><name>Store 7805 - Sugar Land (MSD 10/26)</name><description><![CDATA[5757 New Territory Blvd, Sugar Land, TX 77479<br/>CS# 189523<br/>MSD: Mon 10/26/26<br/>Deliver-by: Wed 10/21/26<br/>Ship-by: Mon 10/19/26<br/>Units: 3 (config 3)<br/>Labor: TBD<br/>Layout: Approved<br/>Pin: OSM CVS store match]]></description><styleUrl>#Hou7</styleUrl><Point><coordinates>-95.67708,29.59094,0</coordinates></Point></Placemark><Placemark><name>Store 3693 - Houston (MSD 11/02)</name><description><![CDATA[7950 S. Gessner Rd., Houston, TX 77036<br/>CS# 189279<br/>MSD: Mon 11/02/26<br/>Deliver-by: Wed 10/28/26<br/>Ship-by: Mon 10/26/26<br/>Units: 3 (config 3)<br/>Labor: MV<br/>Layout: Approved<br/>Pin: Census address match]]></description><styleUrl>#Hou7</styleUrl><Point><coordinates>-95.53564,29.69158,0</coordinates></Point></Placemark><Placemark><name>Store 4474 - Missouri City (MSD 11/02)</name><description><![CDATA[2781 Dulles Ave., Missouri City, TX 77459<br/>CS# 189322<br/>MSD: Mon 11/02/26<br/>Deliver-by: Wed 10/28/26<br/>Ship-by: Mon 10/26/26<br/>Units: 3 (config 3)<br/>Labor: MV<br/>Layout: Approved<br/>Pin: Census address match]]></description><styleUrl>#Hou7</styleUrl><Point><coordinates>-95.58059,29.58387,0</coordinates></Point></Placemark><Placemark><name>Store 10664 - Montgomery (MSD 11/02)</name><description><![CDATA[2180 Woodforest Parkway N., Montgomery, TX 77316<br/>CS# 190021<br/>MSD: Mon 11/02/26<br/>Deliver-by: Wed 10/28/26<br/>Ship-by: Mon 10/26/26<br/>Units: 3 (config 3)<br/>Labor: Store Labor<br/>Layout: Approved<br/>Pin: Census address match]]></description><styleUrl>#Hou7</styleUrl><Point><coordinates>-95.57163,30.28149,0</coordinates></Point></Placemark><Placemark><name>Store 7448 - Tomball (MSD 11/02)</name><description><![CDATA[815 W. Main St., Tomball, TX 77375<br/>CS# 189516<br/>MSD: Mon 11/02/26<br/>Deliver-by: Wed 10/28/26<br/>Ship-by: Mon 10/26/26<br/>Units: 3 (config 3)<br/>Labor: MV<br/>Layout: Approved<br/>Pin: Census address match]]></description><styleUrl>#Hou7</styleUrl><Point><coordinates>-95.6231,30.09403,0</coordinates></Point></Placemark><Placemark><name>Store 7476 - Houston (MSD 11/09)</name><description><![CDATA[5401 Washington Ave, Houston, TX 77007<br/>CS# 189519<br/>MSD: Mon 11/09/26<br/>Deliver-by: Wed 11/04/26<br/>Ship-by: Mon 11/02/26<br/>Units: 3 (config TBD)<br/>Labor: TBD<br/>Layout: Not Validated Yet<br/>Pin: Census address match]]></description><styleUrl>#Hou7</styleUrl><Point><coordinates>-95.41642,29.77054,0</coordinates></Point></Placemark><Placemark><name>Store 6655 - Huntsville (MSD 11/09)</name><description><![CDATA[1569 11Th St, Huntsville, TX 77340<br/>CS# 189471<br/>MSD: Mon 11/09/26<br/>Deliver-by: Wed 11/04/26<br/>Ship-by: Mon 11/02/26<br/>Units: 3 (config 3)<br/>Labor: MV<br/>Layout: Approved<br/>Pin: Road only (11th St) - approx.]]></description><styleUrl>#Hou7</styleUrl><Point><coordinates>-95.56845,30.7184,0</coordinates></Point></Placemark><Placemark><name>Store 10177 - Katy (MSD 11/09)</name><description><![CDATA[2720 Fm 1463, Katy, TX 77494<br/>CS# 189927<br/>MSD: Mon 11/09/26<br/>Deliver-by: Wed 11/04/26<br/>Ship-by: Mon 11/02/26<br/>Units: 3 (config TBD)<br/>Labor: TBD<br/>Layout: Not Validated Yet<br/>Pin: Census address match]]></description><styleUrl>#Hou7</styleUrl><Point><coordinates>-95.85171,29.75206,0</coordinates></Point></Placemark><Placemark><name>Store 5972 - Rosenberg (MSD 11/09)</name><description><![CDATA[5305 Avenue I, Rosenberg, TX 77471<br/>CS# 189424<br/>MSD: Mon 11/09/26<br/>Deliver-by: Wed 11/04/26<br/>Ship-by: Mon 11/02/26<br/>Units: 3 (config TBD)<br/>Labor: TBD<br/>Layout: Not Validated Yet<br/>Pin: Census address match]]></description><styleUrl>#Hou7</styleUrl><Point><coordinates>-95.77331,29.55818,0</coordinates></Point></Placemark><Placemark><name>Store 10350 - Sugar Land (MSD 11/09)</name><description><![CDATA[4523 L J Parkway, Sugar Land, TX 77479<br/>CS# 189979<br/>MSD: Mon 11/09/26<br/>Deliver-by: Wed 11/04/26<br/>Ship-by: Mon 11/02/26<br/>Units: 3 (config TBD)<br/>Labor: TBD<br/>Layout: Not Validated Yet<br/>Pin: Census address match]]></description><styleUrl>#Hou7</styleUrl><Point><coordinates>-95.58453,29.54616,0</coordinates></Point></Placemark><Placemark><name>Store 7475 - Kingwood (MSD 11/16)</name><description><![CDATA[1350 Kingwood Dr, Kingwood, TX 77339<br/>CS# 189521<br/>MSD: Mon 11/16/26<br/>Deliver-by: Wed 11/11/26<br/>Ship-by: Mon 11/09/26<br/>Units: 3 (config TBD)<br/>Labor: TBD<br/>Layout: Not Validated Yet<br/>Pin: Census address match]]></description><styleUrl>#Hou7</styleUrl><Point><coordinates>-95.23576,30.04932,0</coordinates></Point></Placemark><Placemark><name>Store 5519 - League City (MSD 11/16)</name><description><![CDATA[1295 East League City Pkwy., League City, TX 77573<br/>CS# 189423<br/>MSD: Mon 11/16/26<br/>Deliver-by: Wed 11/11/26<br/>Ship-by: Mon 11/09/26<br/>Units: 3 (config TBD)<br/>Labor: TBD<br/>Layout: Not Validated Yet<br/>Pin: Road only (E League City Pkwy) - approx.]]></description><styleUrl>#Hou7</styleUrl><Point><coordinates>-95.024,29.51775,0</coordinates></Point></Placemark><Placemark><name>Store 11067 - Missouri City (MSD 11/16)</name><description><![CDATA[2735 Sienna Parkway, Missouri City, TX 77459<br/>CS# 190022<br/>MSD: Mon 11/16/26<br/>Deliver-by: Wed 11/11/26<br/>Ship-by: Mon 11/09/26<br/>Units: 3 (config TBD)<br/>Labor: TBD<br/>Layout: Not Validated Yet<br/>Pin: Census address match]]></description><styleUrl>#Hou7</styleUrl><Point><coordinates>-95.52145,29.48494,0</coordinates></Point></Placemark><Placemark><name>Store 10544 - Katy (MSD 11/30)</name><description><![CDATA[5902 Fm 1463 Rd., Katy, TX 77494<br/>CS# 189980<br/>MSD: Mon 11/30/26<br/>Deliver-by: Wed 11/25/26<br/>Ship-by: Mon 11/23/26<br/>Units: 3 (config TBD)<br/>Labor: TBD<br/>Layout: Not Validated Yet<br/>Pin: Census address match]]></description><styleUrl>#Hou7</styleUrl><Point><coordinates>-95.84614,29.70625,0</coordinates></Point></Placemark><Placemark><name>Store 10604 - Manvel (MSD 11/30)</name><description><![CDATA[4489 County Road 94, Manvel, TX 77578<br/>CS# 190023<br/>MSD: Mon 11/30/26<br/>Deliver-by: Wed 11/25/26<br/>Ship-by: Mon 11/23/26<br/>Units: 3 (config TBD)<br/>Labor: TBD<br/>Layout: Not Validated Yet<br/>Pin: Census address match]]></description><styleUrl>#Hou7</styleUrl><Point><coordinates>-95.38349,29.53145,0</coordinates></Point></Placemark><Placemark><name>Store 6000 - Pasadena (MSD 11/30)</name><description><![CDATA[4101 Fairmont Pkwy.,, Pasadena, TX 77504<br/>CS# 189420<br/>MSD: Mon 11/30/26<br/>Deliver-by: Wed 11/25/26<br/>Ship-by: Mon 11/23/26<br/>Units: 3 (config TBD)<br/>Labor: TBD<br/>Layout: Not Validated Yet<br/>Pin: Census address match]]></description><styleUrl>#Hou7</styleUrl><Point><coordinates>-95.18311,29.65103,0</coordinates></Point></Placemark><Placemark><name>Store 7120 - Pearland (MSD 11/30)</name><description><![CDATA[11600 Shadow Creek Pkwy., Pearland, TX 77584<br/>CS# 189522<br/>MSD: Mon 11/30/26<br/>Deliver-by: Wed 11/25/26<br/>Ship-by: Mon 11/23/26<br/>Units: 3 (config TBD)<br/>Labor: TBD<br/>Layout: Not Validated Yet<br/>Pin: Census address match]]></description><styleUrl>#Hou7</styleUrl><Point><coordinates>-95.39617,29.57945,0</coordinates></Point></Placemark></Folder><Folder><name>Austin / Central</name><Placemark><name>Store 6893 - Austin (MSD 10/12)</name><description><![CDATA[3569 Far West Blvd., Austin, TX 78731<br/>CS# 189469<br/>MSD: Mon 10/12/26<br/>Deliver-by: Wed 10/07/26<br/>Ship-by: Mon 10/05/26<br/>Units: 3 (config 3)<br/>Labor: TBD<br/>Layout: Approved<br/>Pin: Census address match]]></description><styleUrl>#Aus16</styleUrl><Point><coordinates>-97.7541,30.35374,0</coordinates></Point></Placemark><Placemark><name>Store 10691 - Marble Falls (MSD 10/12)</name><description><![CDATA[302 Gateway North, Marble Falls, TX 78654<br/>CS# 190027<br/>MSD: Mon 10/12/26<br/>Deliver-by: Wed 10/07/26<br/>Ship-by: Mon 10/05/26<br/>Units: 3 (config 3)<br/>Labor: MV<br/>Layout: Approved<br/>Pin: Census address match]]></description><styleUrl>#Aus16</styleUrl><Point><coordinates>-98.27438,30.56295,0</coordinates></Point></Placemark><Placemark><name>Store 10875 - Round Rock (MSD 10/19)</name><description><![CDATA[3000 Rm 1431, Round Rock, TX 78681<br/>CS# 190026<br/>MSD: Mon 10/19/26<br/>Deliver-by: Wed 10/14/26<br/>Ship-by: Mon 10/12/26<br/>Units: 3 (config 3)<br/>Labor: Store Labor<br/>Layout: Approved<br/>Pin: OSM CVS store match - verify (3000 Sendero Springs Dr)]]></description><styleUrl>#Aus16</styleUrl><Point><coordinates>-97.73936,30.55072,0</coordinates></Point></Placemark><Placemark><name>Store 1430 - Unit B (MSD 10/26)</name><description><![CDATA[2101 S. Lamar Blvd., Unit B, Austin, TX 78704<br/>CS# 189074<br/>MSD: Mon 10/26/26<br/>Deliver-by: Wed 10/21/26<br/>Ship-by: Mon 10/19/26<br/>Units: 3 (config 3)<br/>Labor: MV<br/>Layout: Approved<br/>Pin: Census address match]]></description><styleUrl>#Aus16</styleUrl><Point><coordinates>-97.76999,30.24834,0</coordinates></Point></Placemark><Placemark><name>Store 6822 - Austin (MSD 10/26)</name><description><![CDATA[5256 Burnet Rd Ste B, Austin, TX 78756<br/>CS# 189470<br/>MSD: Mon 10/26/26<br/>Deliver-by: Wed 10/21/26<br/>Ship-by: Mon 10/19/26<br/>Units: 3 (config 3)<br/>Labor: Store Labor<br/>Layout: Approved<br/>Pin: Census address match]]></description><styleUrl>#Aus16</styleUrl><Point><coordinates>-97.73969,30.3259,0</coordinates></Point></Placemark><Placemark><name>Store 5776 - San Marcos (MSD 10/26)</name><description><![CDATA[105 Wonderworld Drive, San Marcos, TX 78666<br/>CS# 189425<br/>MSD: Mon 10/26/26<br/>Deliver-by: Wed 10/21/26<br/>Ship-by: Mon 10/19/26<br/>Units: 3 (config 3)<br/>Labor: MV<br/>Layout: Approved<br/>Pin: Census address match]]></description><styleUrl>#Aus16</styleUrl><Point><coordinates>-97.96307,29.86551,0</coordinates></Point></Placemark><Placemark><name>Store 10221 - Killeen (MSD 11/16)</name><description><![CDATA[2502 Trimmier Rd., Killeen, TX 76542<br/>CS# 189928<br/>MSD: Mon 11/16/26<br/>Deliver-by: Wed 11/11/26<br/>Ship-by: Mon 11/09/26<br/>Units: 3 (config TBD)<br/>Labor: TBD<br/>Layout: Not Validated Yet<br/>Pin: Census address match]]></description><styleUrl>#Aus16</styleUrl><Point><coordinates>-97.73262,31.0938,0</coordinates></Point></Placemark><Placemark><name>Store 10585 - Killeen (MSD 11/16)</name><description><![CDATA[3300 W. Stan Schlueter Loop, Killeen, TX 76549<br/>CS# 189982<br/>MSD: Mon 11/16/26<br/>Deliver-by: Wed 11/11/26<br/>Ship-by: Mon 11/09/26<br/>Units: 3 (config TBD)<br/>Labor: TBD<br/>Layout: Not Validated Yet<br/>Pin: Census address match]]></description><styleUrl>#Aus16</styleUrl><Point><coordinates>-97.7844,31.08535,0</coordinates></Point></Placemark><Placemark><name>Store 357 - Austin (MSD 11/30)</name><description><![CDATA[1701 E. Parmer Ln., Austin, TX 78754<br/>CS# 188921<br/>MSD: Mon 11/30/26<br/>Deliver-by: Wed 11/25/26<br/>Ship-by: Mon 11/23/26<br/>Units: 3 (config TBD)<br/>Labor: TBD<br/>Layout: Not Validated Yet<br/>Pin: Census address match]]></description><styleUrl>#Aus16</styleUrl><Point><coordinates>-97.6485,30.38677,0</coordinates></Point></Placemark><Placemark><name>Store 928 - Round Rock (MSD 11/30)</name><description><![CDATA[800 West Old Settlers Blvd, Round Rock, TX 78681<br/>CS# 189024<br/>MSD: Mon 11/30/26<br/>Deliver-by: Wed 11/25/26<br/>Ship-by: Mon 11/23/26<br/>Units: 3 (config TBD)<br/>Labor: TBD<br/>Layout: Not Validated Yet<br/>Pin: Census address match]]></description><styleUrl>#Aus16</styleUrl><Point><coordinates>-97.69512,30.53606,0</coordinates></Point></Placemark></Folder><Folder><name>San Antonio</name><Placemark><name>Store 10633 - San Antonio (MSD 10/12)</name><description><![CDATA[3502 Se Military Dr., San Antonio, TX 78223<br/>CS# 190030<br/>MSD: Mon 10/12/26<br/>Deliver-by: Wed 10/07/26<br/>Ship-by: Mon 10/05/26<br/>Units: 3 (config 3)<br/>Labor: MV<br/>Layout: Approved<br/>Pin: Census address match]]></description><styleUrl>#San11</styleUrl><Point><coordinates>-98.42646,29.35312,0</coordinates></Point></Placemark><Placemark><name>Store 10947 - New Braunfels (MSD 10/19)</name><description><![CDATA[1910 State Highway 46 W, New Braunfels, TX 78132<br/>CS# 190028<br/>MSD: Mon 10/19/26<br/>Deliver-by: Wed 10/14/26<br/>Ship-by: Mon 10/12/26<br/>Units: 3 (config 3)<br/>Labor: Store Labor<br/>Layout: Approved<br/>Pin: Census address match]]></description><styleUrl>#San11</styleUrl><Point><coordinates>-98.05628,29.67152,0</coordinates></Point></Placemark><Placemark><name>Store 10750 - San Antonio (MSD 10/19)</name><description><![CDATA[9050 Fm 1560 N, San Antonio, TX 78254<br/>CS# 190029<br/>MSD: Mon 10/19/26<br/>Deliver-by: Wed 10/14/26<br/>Ship-by: Mon 10/12/26<br/>Units: 3 (config 3)<br/>Labor: MV<br/>Layout: Approved<br/>Pin: Census address match]]></description><styleUrl>#San11</styleUrl><Point><coordinates>-98.71799,29.52424,0</coordinates></Point></Placemark><Placemark><name>Store 10595 - Cibolo (MSD 11/02)</name><description><![CDATA[200 Cibolo Valley Dr., Cibolo, TX 78108<br/>CS# 189984<br/>MSD: Mon 11/02/26<br/>Deliver-by: Wed 10/28/26<br/>Ship-by: Mon 10/26/26<br/>Units: 4 (config 4)<br/>Labor: Store Labor<br/>Layout: Approved<br/>Pin: Road only (Cibolo Valley Dr) - approx.]]></description><styleUrl>#San11</styleUrl><Point><coordinates>-98.26611,29.60842,0</coordinates></Point></Placemark><Placemark><name>Store 7307 - San Antonio (MSD 11/02)</name><description><![CDATA[2018 Culebra Rd., San Antonio, TX 78201<br/>CS# 189526<br/>MSD: Mon 11/02/26<br/>Deliver-by: Wed 10/28/26<br/>Ship-by: Mon 10/26/26<br/>Units: 3 (config TBD)<br/>Labor: TBD<br/>Layout: Not Validated Yet<br/>Pin: Census address match]]></description><styleUrl>#San11</styleUrl><Point><coordinates>-98.53974,29.44652,0</coordinates></Point></Placemark><Placemark><name>Store 10579 - Alamo Heights (MSD 11/16)</name><description><![CDATA[4600 Broadway St., Alamo Heights, TX 78209<br/>CS# 189983<br/>MSD: Mon 11/16/26<br/>Deliver-by: Wed 11/11/26<br/>Ship-by: Mon 11/09/26<br/>Units: 3 (config TBD)<br/>Labor: TBD<br/>Layout: Not Validated Yet<br/>Pin: Census address match]]></description><styleUrl>#San11</styleUrl><Point><coordinates>-98.46356,29.4683,0</coordinates></Point></Placemark><Placemark><name>Store 7808 - San Antonio (MSD 11/30)</name><description><![CDATA[4805 Medical Dr, San Antonio, TX 78229<br/>CS# 189524<br/>MSD: Mon 11/30/26<br/>Deliver-by: Wed 11/25/26<br/>Ship-by: Mon 11/23/26<br/>Units: 3 (config TBD)<br/>Labor: TBD<br/>Layout: Not Validated Yet<br/>Pin: Census address match]]></description><styleUrl>#San11</styleUrl><Point><coordinates>-98.58032,29.51041,0</coordinates></Point></Placemark><Placemark><name>Store 7784 - Seguin (MSD 11/30)</name><description><![CDATA[110 S King St, Seguin, TX 78155<br/>CS# 189525<br/>MSD: Mon 11/30/26<br/>Deliver-by: Wed 11/25/26<br/>Ship-by: Mon 11/23/26<br/>Units: 3 (config TBD)<br/>Labor: TBD<br/>Layout: Not Validated Yet<br/>Pin: Census address match]]></description><styleUrl>#San11</styleUrl><Point><coordinates>-97.94988,29.56873,0</coordinates></Point></Placemark></Folder><Folder><name>South TX</name><Placemark><name>Store 5651 - Weslaco (MSD 10/26)</name><description><![CDATA[1602 East Highway 83, Weslaco, TX 78596<br/>CS# 189422<br/>MSD: Mon 10/26/26<br/>Deliver-by: Wed 10/21/26<br/>Ship-by: Fri 10/16/26<br/>Units: 4 (config 4)<br/>Labor: MV<br/>Layout: Approved<br/>Pin: OSM CVS store match - verify (1602 E 6th St)]]></description><styleUrl>#Sou8</styleUrl><Point><coordinates>-97.97398,26.15593,0</coordinates></Point></Placemark><Placemark><name>Store 10405 - Edinburg (MSD 11/02)</name><description><![CDATA[103 W. Monte Cristo Rd., Edinburg, TX 78541<br/>CS# 189978<br/>MSD: Mon 11/02/26<br/>Deliver-by: Wed 10/28/26<br/>Ship-by: Fri 10/23/26<br/>Units: 4 (config 4)<br/>Labor: MV<br/>Layout: Approved<br/>Pin: Road only (W Monte Cristo Rd) - approx.]]></description><styleUrl>#Sou8</styleUrl><Point><coordinates>-98.17993,26.34057,0</coordinates></Point></Placemark><Placemark><name>Store 10107 - Mission (MSD 11/02)</name><description><![CDATA[2300 N Conway Ave., Mission, TX 78574<br/>CS# 189926<br/>MSD: Mon 11/02/26<br/>Deliver-by: Wed 10/28/26<br/>Ship-by: Fri 10/23/26<br/>Units: 3 (config TBD)<br/>Labor: TBD<br/>Layout: Not Validated Yet<br/>Pin: OSM CVS store match]]></description><styleUrl>#Sou8</styleUrl><Point><coordinates>-98.32266,26.23017,0</coordinates></Point></Placemark><Placemark><name>Store 248 - Edinburg (MSD 11/09)</name><description><![CDATA[2121 W. Trenton Rd., Edinburg, TX 78539<br/>CS# 188919<br/>MSD: Mon 11/09/26<br/>Deliver-by: Wed 11/04/26<br/>Ship-by: Fri 10/30/26<br/>Units: 3 (config TBD)<br/>Labor: TBD<br/>Layout: Not Validated Yet<br/>Pin: Census address match]]></description><styleUrl>#Sou8</styleUrl><Point><coordinates>-98.19207,26.26466,0</coordinates></Point></Placemark><Placemark><name>Store 2328 - Corpus Christi (MSD 11/16)</name><description><![CDATA[3205 S. Alameda St., Corpus Christi, TX 78404<br/>CS# 189190<br/>MSD: Mon 11/16/26<br/>Deliver-by: Wed 11/11/26<br/>Ship-by: Fri 11/06/26<br/>Units: 3 (config TBD)<br/>Labor: TBD<br/>Layout: Not Validated Yet<br/>Pin: OSM address match]]></description><styleUrl>#Sou8</styleUrl><Point><coordinates>-97.38984,27.75643,0</coordinates></Point></Placemark></Folder><Folder><name>Outlier</name><Placemark><name>Store 10594 - New Orleans (MSD 10/26)</name><description><![CDATA[500 N. Carrollton Ave., New Orleans, LA 70119<br/>CS# 189977<br/>MSD: Mon 10/26/26<br/>Deliver-by: Wed 10/21/26<br/>Ship-by: Thu 10/15/26<br/>Units: 3 (config 3)<br/>Labor: Store Labor<br/>Layout: Approved<br/>Pin: Census address match]]></description><styleUrl>#Out7</styleUrl><Point><coordinates>-90.09722,29.9775,0</coordinates></Point></Placemark><Placemark><name>Store 1543 - Amarillo (MSD 11/30)</name><description><![CDATA[7301 Hillside Rd., Amarillo, TX 79119<br/>CS# 189116<br/>MSD: Mon 11/30/26<br/>Deliver-by: Wed 11/25/26<br/>Ship-by: Thu 11/19/26<br/>Units: 3 (config TBD)<br/>Labor: TBD<br/>Layout: Not Validated Yet<br/>Pin: Census address match]]></description><styleUrl>#Out7</styleUrl><Point><coordinates>-101.92013,35.14673,0</coordinates></Point></Placemark></Folder></Document></kml>